NORAD_CAT_ID,OBJECT_NAME,OBJECT_TYPE,EPOCH,MEAN_MOTION,ECCENTRICITY,INCLINATION,RA_OF_ASC_NODE,ARG_OF_PERICENTER,MEAN_ANOMALY,BSTAR,MEAN_MOTION_DOT,MEAN_MOTION_DDOT,TLE_LINE0,TLE_LINE1,TLE_LINE2,SEMIMAJOR_AXIS,PERIOD,APOGEE,PERIGEE,DECAYED
49133.0,STARLINK-3077,PAYLOAD,2024-08-05 17:02:47,14.98339561,0.0003317,70.0028,319.3114,272.8975,87.1804,7.1032e-05,7.55e-06,0.0,0 STARLINK-3077,1 49133U 21082D   24218.71027558  .00000755  00000-0  71032-4 0  9999,2 49133  70.0028 319.3114 0003317 272.8975  87.1804 14.98339561158950,6950.163,96.106,574.334,569.723,0.0
49133.0,STARLINK-3077,PAYLOAD,2024-08-06 12:16:25,14.98320117,0.0002982,70.0024,317.2948,265.3996,94.6823,-3.6456e-07,-9.7e-07,0.0,0 STARLINK-3077,1 49133U 21082D   24219.51141105 -.00000097  00000-0 -36456-6 0  9997,2 49133  70.0024 317.2948 0002982 265.3996  94.6823 14.98320117159070,6950.223,96.108,574.161,570.016,0.0
49133.0,STARLINK-3077,PAYLOAD,2024-08-06 13:52:34,14.98322266,0.0002889,70.0023,317.1267,262.2945,97.7886,-7.8332e-05,-1.027e-05,0.0,0 STARLINK-3077,1 49133U 21082D   24219.57817142 -.00001027  00000-0 -78332-4 0  9995,2 49133  70.0023 317.1267 0002889 262.2945  97.7886 14.98322266159089,6950.217,96.107,574.09,570.074,0.0
49133.0,STARLINK-3077,PAYLOAD,2024-08-06 17:04:50,14.98309812,0.000241,70.0026,316.7891,252.2757,107.8139,0.00016837,1.916e-05,0.0,0 STARLINK-3077,1 49133U 21082D   24219.71169534  .00001916  00000-0  16837-3 0  9992,2 49133  70.0026 316.7891 0002410 252.2757 107.8139 14.98309812159109,6950.255,96.108,573.795,570.445,0.0
49133.0,STARLINK-3077,PAYLOAD,2024-08-07 12:18:26,14.98331606,0.0002981,70.0018,314.7687,264.548,95.5339,0.00015069,1.706e-05,0.0,0 STARLINK-3077,1 49133U 21082D   24220.51280135  .00001706  00000-0  15069-3 0  9996,2 49133  70.0018 314.7687 0002981 264.5480  95.5339 14.98331606159227,6950.188,96.107,574.125,569.981,0.0
49133.0,STARLINK-3077,PAYLOAD,2024-08-07 15:30:41,14.98338195,0.0003003,70.0015,314.4314,267.1072,92.9744,0.00020604,2.367e-05,0.0,0 STARLINK-3077,1 49133U 21082D   24220.64631598  .00002367  00000-0  20604-3 0  9998,2 49133  70.0015 314.4314 0003003 267.1072  92.9744 14.98338195159243,6950.168,96.106,574.12,569.945,0.0
49133.0,STARLINK-3077,PAYLOAD,2024-08-08 13:56:35,14.98332273,0.0002934,70.0017,312.0754,259.4496,100.6332,0.00023679,2.734e-05,0.0,0 STARLINK-3077,1 49133U 21082D   24221.58096077  .00002734  00000-0  23679-3 0  9992,2 49133  70.0017 312.0754 0002934 259.4496 100.6332 14.98332273159389,6950.186,96.107,574.09,570.012,0.0
49133.0,STARLINK-3077,PAYLOAD,2024-08-08 15:32:42,14.98334537,0.0002921,70.0018,311.9072,259.0188,101.0643,0.00026424,3.062e-05,0.0,0 STARLINK-3077,1 49133U 21082D   24221.64771924  .00003062  00000-0  26424-3 0  9996,2 49133  70.0018 311.9072 0002921 259.0188 101.0643 14.98334537159397,6950.179,96.107,574.074,570.014,0.0
49133.0,STARLINK-3077,PAYLOAD,2024-08-09 13:58:35,14.98338147,0.00031,70.0019,309.5506,270.0662,90.0142,5.9963e-05,6.23e-06,0.0,0 STARLINK-3077,1 49133U 21082D   24222.58235780  .00000623  00000-0  59963-4 0  9990,2 49133  70.0019 309.5506 0003100 270.0662  90.0142 14.98338147159531,6950.168,96.106,574.187,569.878,0.0
49133.0,STARLINK-3077,PAYLOAD,2024-08-09 15:34:43,14.98341843,0.0003091,70.0014,309.3817,267.6992,92.3813,8.0353e-05,8.66e-06,0.0,0 STARLINK-3077,1 49133U 21082D   24222.64911419  .00000866  00000-0  80353-4 0  9993,2 49133  70.0014 309.3817 0003091 267.6992  92.3813 14.98341843159544,6950.156,96.106,574.17,569.873,0.0
49133.0,STARLINK-3077,PAYLOAD,2024-08-10 12:24:29,14.98329255,0.0002742,70.0018,307.1946,266.094,93.9906,1.1708e-05,4.7e-07,0.0,0 STARLINK-3077,1 49133U 21082D   24223.51700332  .00000047  00000-0  11708-4 0  9999,2 49133  70.0018 307.1946 0002742 266.0940  93.9906 14.98329255159672,6950.195,96.107,573.966,570.154,0.0
49133.0,STARLINK-3077,PAYLOAD,2024-08-10 14:00:36,14.9833322,0.0002783,70.0016,307.0263,264.6791,95.4051,4.7219e-05,4.71e-06,0.0,0 STARLINK-3077,1 49133U 21082D   24223.58375979  .00000471  00000-0  47219-4 0  9998,2 49133  70.0016 307.0263 0002783 264.6791  95.4051 14.98333220159680,6950.183,96.107,573.982,570.114,0.0
49133.0,STARLINK-3077,PAYLOAD,2024-08-10 15:36:44,14.98335763,0.0002777,70.0017,306.8586,264.7155,95.3687,8.4204e-05,9.12e-06,0.0,0 STARLINK-3077,1 49133U 21082D   24223.65051761  .00000912  00000-0  84204-4 0  9991,2 49133  70.0017 306.8586 0002777 264.7155  95.3687 14.98335763159693,6950.175,96.107,573.97,570.11,0.0
49133.0,STARLINK-3077,PAYLOAD,2024-08-11 12:26:30,14.9832748,0.0003053,70.0013,304.6685,270.3507,89.7302,0.00012551,1.405e-05,0.0,0 STARLINK-3077,1 49133U 21082D   24224.51840323  .00001405  00000-0  12551-3 0  9990,2 49133  70.0013 304.6685 0003053 270.3507  89.7302 14.98327480159820,6950.201,96.107,574.188,569.944,0.0
49133.0,STARLINK-3077,PAYLOAD,2024-08-11 22:03:16,14.98365725,0.0003219,70.0012,303.6575,276.7766,83.3026,-0.00032154,-3.931e-05,0.0,0 STARLINK-3077,1 49133U 21082D   24224.91894141 -.00003931  00000-0 -32154-3 0  9990,2 49133  70.0012 303.6575 0003219 276.7766  83.3026 14.98365725159880,6950.082,96.105,574.185,569.71,0.0
49133.0,STARLINK-3077,PAYLOAD,2024-08-12 04:27:50,14.98335874,0.0002885,70.0013,302.9861,265.9041,94.1788,0.00019514,2.236e-05,0.0,0 STARLINK-3077,1 49133U 21082D   24225.18599555  .00002236  00000-0  19514-3 0  9991,2 49133  70.0013 302.9861 0002885 265.9041  94.1788 14.98335874159927,6950.175,96.107,574.045,570.035,0.0
49133.0,STARLINK-3077,PAYLOAD,2024-08-12 09:16:13,14.98337085,0.0002744,70.0017,302.4808,268.6416,91.4429,0.00021547,2.479e-05,0.0,0 STARLINK-3077,1 49133U 21082D   24225.38627230  .00002479  00000-0  21547-3 0  9993,2 49133  70.0017 302.4808 0002744 268.6416  91.4429 14.98337085159958,6950.171,96.107,573.943,570.129,0.0
49133.0,STARLINK-3077,PAYLOAD,2024-08-12 15:40:45,14.98348608,0.0002268,70.0009,301.8053,258.2684,101.8221,0.00032114,3.743e-05,0.0,0 STARLINK-3077,1 49133U 21082D   24225.65330109  .00003743  00000-0  32114-3 0  9996,2 49133  70.0009 301.8053 0002268 258.2684 101.8221 14.98348608159990,6950.135,96.106,573.577,570.424,0.0
49133.0,STARLINK-3077,PAYLOAD,2024-08-13 04:29:50,14.983245,0.0002818,70.002,300.4591,262.3055,97.7784,-0.00017299,-2.156e-05,0.0,0 STARLINK-3077,1 49133U 21082D   24226.18739476 -.00002156  00000-0 -17299-3 0  9991,2 49133  70.0020 300.4591 0002818 262.3055  97.7784 14.98324500160077,6950.21,96.107,574.033,570.116,0.0
49133.0,STARLINK-3077,PAYLOAD,2024-08-13 10:54:23,14.98315724,0.0003253,70.0003,299.7846,270.2444,89.8342,-0.00035294,-4.3e-05,0.0,0 STARLINK-3077,1 49133U 21082D   24226.45444098 -.00004300  00000-0 -35294-3 0  9992,2 49133  70.0003 299.7846 0003253 270.2444  89.8342 14.98315724160110,6950.237,96.108,574.363,569.841,0.0
49133.0,STARLINK-3077,PAYLOAD,2024-08-13 22:07:20,14.98319831,0.0003594,70.0003,298.6061,271.8693,88.2055,-0.00041627,-5.055e-05,0.0,0 STARLINK-3077,1 49133U 21082D   24226.92176118 -.00005055  00000-0 -41627-3 0  9994,2 49133  70.0003 298.6061 0003594 271.8693  88.2055 14.98319831160182,6950.224,96.108,574.587,569.591,0.0
49133.0,STARLINK-3077,PAYLOAD,2024-08-14 12:32:33,14.98320372,0.0002954,70.0009,297.0928,267.134,92.9481,-0.00010545,-1.351e-05,0.0,0 STARLINK-3077,1 49133U 21082D   24227.52260718 -.00001351  00000-0 -10545-3 0  9991,2 49133  70.0009 297.0928 0002954 267.1340  92.9481 14.98320372160276,6950.223,96.108,574.141,570.035,0.0
49133.0,STARLINK-3077,PAYLOAD,2024-08-14 14:08:41,14.9832423,0.0002919,70.0015,296.9251,269.4833,90.5992,-6.6419e-05,-8.85e-06,0.0,0 STARLINK-3077,1 49133U 21082D   24227.58936592 -.00000885  00000-0 -66419-4 0  9990,2 49133  70.0015 296.9251 0002919 269.4833  90.5992 14.98324230160282,6950.211,96.107,574.105,570.047,0.0
49133.0,STARLINK-3077,PAYLOAD,2024-08-14 22:09:20,14.98337348,0.0003001,70.0013,296.0831,266.5416,93.54,0.00012772,1.432e-05,0.0,0 STARLINK-3077,1 49133U 21082D   24227.92315960  .00001432  00000-0  12772-3 0  9997,2 49133  70.0013 296.0831 0003001 266.5416  93.5400 14.98337348160330,6950.17,96.107,574.121,569.949,0.0
49133.0,STARLINK-3077,PAYLOAD,2024-08-15 10:58:25,14.98344926,0.0003189,70.001,294.7361,267.3681,92.7113,0.00085223,0.00010094,0.0,0 STARLINK-3077,1 49133U 21082D   24228.45724125  .00010094  00000-0  85223-3 0  9998,2 49133  70.0010 294.7361 0003189 267.3681  92.7113 14.98344926160411,6950.147,96.106,574.228,569.795,0.0
49133.0,STARLINK-3077,PAYLOAD,2024-08-15 22:11:21,14.98350293,0.0003416,69.9998,293.5558,268.3438,91.733,0.00057039,6.723e-05,0.0,0 STARLINK-3077,1 49133U 21082D   24228.92455460  .00006723  00000-0  57039-3 0  9991,2 49133  69.9998 293.5558 0003416 268.3438  91.7330 14.98350293160483,6950.13,96.106,574.369,569.621,0.0
49133.0,STARLINK-3077,PAYLOAD,2024-08-16 04:35:54,14.9834189,0.000265,70.0008,292.8839,266.7594,93.3262,0.00034399,4.015e-05,0.0,0 STARLINK-3077,1 49133U 21082D   24229.19159895  .00004015  00000-0  34399-3 0  9990,2 49133  70.0008 292.8839 0002650 266.7594  93.3262 14.98341890160526,6950.156,96.106,573.863,570.179,0.0
49133.0,STARLINK-3077,PAYLOAD,2024-08-16 09:24:18,14.98336982,0.0002756,70.0016,292.3799,270.0634,90.0209,1.3396e-05,6.7e-07,0.0,0 STARLINK-3077,1 49133U 21082D   24229.39187859  .00000067  00000-0  13396-4 0  9991,2 49133  70.0016 292.3799 0002756 270.0634  90.0209 14.98336982160559,6950.171,96.107,573.952,570.121,0.0
49133.0,STARLINK-3077,PAYLOAD,2024-08-17 04:37:54,14.9833678,0.0002999,70.0015,290.3595,271.0725,89.009,0.00013779,1.552e-05,0.0,0 STARLINK-3077,1 49133U 21082D   24230.19299649  .00001552  00000-0  13779-3 0  9996,2 49133  70.0015 290.3595 0002999 271.0725  89.0090 14.98336780160676,6950.172,96.107,574.121,569.953,0.0
49133.0,STARLINK-3077,PAYLOAD,2024-08-17 07:50:11,14.98336091,0.0002791,70.0014,290.0224,269.9954,90.0885,0.0001382,1.557e-05,0.0,0 STARLINK-3077,1 49133U 21082D   24230.32651675  .00001557  00000-0  13820-3 0  9994,2 49133  70.0014 290.0224 0002791 269.9954  90.0885 14.98336091160692,6950.174,96.107,573.979,570.099,0.0
